{"type": "FeatureCollection", "features": [ {"type": "Feature", "properties": {"norad_id": 66499, "name": "STARLINK-35816", "group": "last-30-days", "lat": -15.01782266740235, "lon": 137.3447723964388, "alt_km": 410.15703786718495, "timestamp": "2025-12-07T18:50:15.513888+00:00", "meta": {"OBJECT_NAME": "STARLINK-35816", "OBJECT_ID": "2025-263Q", "EPOCH": "2025-12-07T06:00:04.999968", "MEAN_MOTION": 15.54997552, "ECCENTRICITY": 0.00012873, "INCLINATION": 43.0005, "RA_OF_ASC_NODE": 157.2211, "ARG_OF_PERICENTER": 261.8319, "MEAN_ANOMALY": 320.574, "EPHEMERIS_TYPE": 0, "CLASSIFICATION_TYPE": "U", "NORAD_CAT_ID": 66499, "ELEMENT_SET_NO": 999, "REV_AT_EPOCH": 475, "BSTAR": -0.033885798, "MEAN_MOTION_DOT": -0.0207747, "MEAN_MOTION_DDOT": 0}, "tle": {"line1": "1 66499U 25263Q   25341.25005787 -.02077470  00000+0 -33886-1 0  9998", "line2": "2 66499  43.0005 157.2211 0001287 261.8319 320.5740 15.54997552  4754"}}, "geometry": {"type": "Point", "coordinates": [137.3447723964388, -15.01782266740235]}}, {"type": "Feature", "properties": {"norad_id": 66500, "name": "STARLINK-35894", "group": "last-30-days", "lat": -39.04486463381554, "lon": 93.68374091842624, "alt_km": 417.50624829766, "timestamp": "2025-12-07T18:50:15.513900+00:00", "meta": {"OBJECT_NAME": "STARLINK-35894", "OBJECT_ID": "2025-263R", "EPOCH": "2025-12-07T06:00:04.999968", "MEAN_MOTION": 15.50464647, "ECCENTRICITY": 0.00012896, "INCLINATION": 43.0003, "RA_OF_ASC_NODE": 157.3167, "ARG_OF_PERICENTER": 298.0707, "MEAN_ANOMALY": 245.4787, "EPHEMERIS_TYPE": 0, "CLASSIFICATION_TYPE": "U", "NORAD_CAT_ID": 66500, "ELEMENT_SET_NO": 999, "REV_AT_EPOCH": 475, "BSTAR": 0.0011407962, "MEAN_MOTION_DOT": 0.00066883, "MEAN_MOTION_DDOT": 0}, "tle": {"line1": "1 66500U 25263R   25341.25005787  .00066883  00000+0  11408-2 0  9990", "line2": "2 66500  43.0003 157.3167 0001289 298.0707 245.4787 15.50464647  4757"}}, "geometry": {"type": "Point", "coordinates": [93.68374091842624, -39.04486463381554]}}, {"type": "Feature", "properties": {"norad_id": 66501, "name": "STARLINK-35897", "group": "last-30-days", "lat": -13.763399857249597, "lon": 138.83289623598878, "alt_km": 409.93357040107367, "timestamp": "2025-12-07T18:50:15.513910+00:00", "meta": {"OBJECT_NAME": "STARLINK-35897", "OBJECT_ID": "2025-263S", "EPOCH": "2025-12-07T06:00:04.999968", "MEAN_MOTION": 15.54997791, "ECCENTRICITY": 0.00013608, "INCLINATION": 43.0002, "RA_OF_ASC_NODE": 157.2168, "ARG_OF_PERICENTER": 267.2591, "MEAN_ANOMALY": 317.0641, "EPHEMERIS_TYPE": 0, "CLASSIFICATION_TYPE": "U", "NORAD_CAT_ID": 66501, "ELEMENT_SET_NO": 999, "REV_AT_EPOCH": 475, "BSTAR": -0.03393352, "MEAN_MOTION_DOT": -0.02080139, "MEAN_MOTION_DDOT": 0}, "tle": {"line1": "1 66501U 25263S   25341.25005787 -.02080139  00000+0 -33934-1 0  9992", "line2": "2 66501  43.0002 157.2168 0001360 267.2591 317.0641 15.54997791  4756"}}, "geometry": {"type": "Point", "coordinates": [138.83289623598878, -13.763399857249597]}}, {"type": "Feature", "properties": {"norad_id": 66502, "name": "STARLINK-35922", "group": "last-30-days", "lat": -9.944198169370882, "lon": 143.2128631452066, "alt_km": 409.6556293768999, "timestamp": "2025-12-07T18:50:15.513920+00:00", "meta": {"OBJECT_NAME": "STARLINK-35922", "OBJECT_ID": "2025-263T", "EPOCH": "2025-12-07T06:00:04.999968", "MEAN_MOTION": 15.54992138, "ECCENTRICITY": 0.00013643, "INCLINATION": 43.0004, "RA_OF_ASC_NODE": 157.2014, "ARG_OF_PERICENTER": 265.9934, "MEAN_ANOMALY": 324.0832, "EPHEMERIS_TYPE": 0, "CLASSIFICATION_TYPE": "U", "NORAD_CAT_ID": 66502, "ELEMENT_SET_NO": 999, "REV_AT_EPOCH": 475, "BSTAR": -0.033782881, "MEAN_MOTION_DOT": -0.02071525, "MEAN_MOTION_DDOT": 0}, "tle": {"line1": "1 66502U 25263T   25341.25005787 -.02071525  00000+0 -33783-1 0  9994", "line2": "2 66502  43.0004 157.2014 0001364 265.9934 324.0832 15.54992138  4759"}}, "geometry": {"type": "Point", "coordinates": [143.2128631452066, -9.944198169370882]}}, {"type": "Feature", "properties": {"norad_id": 66503, "name": "STARLINK-35917", "group": "last-30-days", "lat": -7.365860171873757, "lon": 146.07430710554925, "alt_km": 409.46672736911387, "timestamp": "2025-12-07T18:50:15.513930+00:00", "meta": {"OBJECT_NAME": "STARLINK-35917", "OBJECT_ID": "2025-263U", "EPOCH": "2025-12-07T06:00:04.999968", "MEAN_MOTION": 15.54993001, "ECCENTRICITY": 0.00013574, "INCLINATION": 43.0005, "RA_OF_ASC_NODE": 157.1924, "ARG_OF_PERICENTER": 265.1006, "MEAN_ANOMALY": 328.8112, "EPHEMERIS_TYPE": 0, "CLASSIFICATION_TYPE": "U", "NORAD_CAT_ID": 66503, "ELEMENT_SET_NO": 999, "REV_AT_EPOCH": 475, "BSTAR": -0.033816011, "MEAN_MOTION_DOT": -0.0207339, "MEAN_MOTION_DDOT": 0}, "tle": {"line1": "1 66503U 25263U   25341.25005787 -.02073390  00000+0 -33816-1 0  9994", "line2": "2 66503  43.0005 157.1924 0001357 265.1006 328.8112 15.54993001  4757"}}, "geometry": {"type": "Point", "coordinates": [146.07430710554925, -7.365860171873757]}}, {"type": "Feature", "properties": {"norad_id": 66504, "name": "STARLINK-35916", "group": "last-30-days", "lat": -39.66193609928788, "lon": 38.01692339146734, "alt_km": 445.87416929236224, "timestamp": "2025-12-07T18:50:15.513940+00:00", "meta": {"OBJECT_NAME": "STARLINK-35916", "OBJECT_ID": "2025-263V", "EPOCH": "2025-12-07T06:00:04.999968", "MEAN_MOTION": 15.40653387, "ECCENTRICITY": 0.00021566, "INCLINATION": 43.0002, "RA_OF_ASC_NODE": 158.2616, "ARG_OF_PERICENTER": 261.0213, "MEAN_ANOMALY": 258.3787, "EPHEMERIS_TYPE": 0, "CLASSIFICATION_TYPE": "U", "NORAD_CAT_ID": 66504, "ELEMENT_SET_NO": 999, "REV_AT_EPOCH": 475, "BSTAR": 0.00096951241, "MEAN_MOTION_DOT": 0.00040348, "MEAN_MOTION_DDOT": 0}, "tle": {"line1": "1 66504U 25263V   25341.25005787  .00040348  00000+0  96951-3 0  9999", "line2": "2 66504  43.0002 158.2616 0002156 261.0213 258.3787 15.40653387  4758"}}, "geometry": {"type": "Point", "coordinates": [38.01692339146734, -39.66193609928788]}}, {"type": "Feature", "properties": {"norad_id": 66505, "name": "STARLINK-34766", "group": "last-30-days", "lat": -12.49721724892993, "lon": 140.30724048355205, "alt_km": 409.87783366705753, "timestamp": "2025-12-07T18:50:15.513951+00:00", "meta": {"OBJECT_NAME": "STARLINK-34766", "OBJECT_ID": "2025-263W", "EPOCH": "2025-12-07T06:00:04.999968", "MEAN_MOTION": 15.55000183, "ECCENTRICITY": 0.00013945, "INCLINATION": 43.0002, "RA_OF_ASC_NODE": 157.2112, "ARG_OF_PERICENTER": 264.8764, "MEAN_ANOMALY": 321.3588, "EPHEMERIS_TYPE": 0, "CLASSIFICATION_TYPE": "U", "NORAD_CAT_ID": 66505, "ELEMENT_SET_NO": 999, "REV_AT_EPOCH": 475, "BSTAR": -0.033906423, "MEAN_MOTION_DOT": -0.02078846, "MEAN_MOTION_DDOT": 0}, "tle": {"line1": "1 66505U 25263W   25341.25005787 -.02078846  00000+0 -33906-1 0  9997", "line2": "2 66505  43.0002 157.2112 0001394 264.8764 321.3588 15.55000183  4750"}}, "geometry": {"type": "Point", "coordinates": [140.30724048355205, -12.49721724892993]}}, {"type": "Feature", "properties": {"norad_id": 66506, "name": "STARLINK-34765", "group": "last-30-days", "lat": -11.224587598987775, "lon": 141.76711295636468, "alt_km": 409.8310631772674, "timestamp": "2025-12-07T18:50:15.513961+00:00", "meta": {"OBJECT_NAME": "STARLINK-34765", "OBJECT_ID": "2025-263X", "EPOCH": "2025-12-07T06:00:04.999968", "MEAN_MOTION": 15.54998467, "ECCENTRICITY": 0.00013299, "INCLINATION": 43.0003, "RA_OF_ASC_NODE": 157.2073, "ARG_OF_PERICENTER": 263.3675, "MEAN_ANOMALY": 324.7876, "EPHEMERIS_TYPE": 0, "CLASSIFICATION_TYPE": "U", "NORAD_CAT_ID": 66506, "ELEMENT_SET_NO": 999, "REV_AT_EPOCH": 475, "BSTAR": -0.03389755, "MEAN_MOTION_DOT": -0.02078202, "MEAN_MOTION_DDOT": 0}, "tle": {"line1": "1 66506U 25263X   25341.25005787 -.02078202  00000+0 -33898-1 0  9994", "line2": "2 66506  43.0003 157.2073 0001329 263.3675 324.7876 15.54998467  4758"}}, "geometry": {"type": "Point", "coordinates": [141.76711295636468, -11.224587598987775]}}, {"type": "Feature", "properties": {"norad_id": 66507, "name": "STARLINK-34767", "group": "last-30-days", "lat": -8.660238312672517, "lon": 144.64405961460744, "alt_km": 409.68525079533083, "timestamp": "2025-12-07T18:50:15.513972+00:00", "meta": {"OBJECT_NAME": "STARLINK-34767", "OBJECT_ID": "2025-263Y", "EPOCH": "2025-12-07T06:00:04.999968", "MEAN_MOTION": 15.55004505, "ECCENTRICITY": 0.00015108, "INCLINATION": 43.0001, "RA_OF_ASC_NODE": 157.1954, "ARG_OF_PERICENTER": 261.6604, "MEAN_ANOMALY": 330.33, "EPHEMERIS_TYPE": 0, "CLASSIFICATION_TYPE": "U", "NORAD_CAT_ID": 66507, "ELEMENT_SET_NO": 999, "REV_AT_EPOCH": 475, "BSTAR": -0.034162052, "MEAN_MOTION_DOT": -0.0209317, "MEAN_MOTION_DDOT": 0}, "tle": {"line1": "1 66507U 25263Y   25341.25005787 -.02093170  00000+0 -34162-1 0  9991", "line2": "2 66507  43.0001 157.1954 0001510 261.6604 330.3300 15.55004505  4756"}}, "geometry": {"type": "Point", "coordinates": [144.64405961460744, -8.660238312672517]}}, {"type": "Feature", "properties": {"norad_id": 66508, "name": "STARLINK-35608", "group": "last-30-days", "lat": -4.770786589767834, "lon": 148.90050419267004, "alt_km": 409.33231057271496, "timestamp": "2025-12-07T18:50:15.513984+00:00", "meta": {"OBJECT_NAME": "STARLINK-35608", "OBJECT_ID": "2025-263Z", "EPOCH": "2025-12-07T06:00:04.999968", "MEAN_MOTION": 15.55000176, "ECCENTRICITY": 0.0001343, "INCLINATION": 43.0004, "RA_OF_ASC_NODE": 157.183, "ARG_OF_PERICENTER": 261.6571, "MEAN_ANOMALY": 336.084, "EPHEMERIS_TYPE": 0, "CLASSIFICATION_TYPE": "U", "NORAD_CAT_ID": 66508, "ELEMENT_SET_NO": 999, "REV_AT_EPOCH": 475, "BSTAR": -0.033969631, "MEAN_MOTION_DOT": -0.02082263, "MEAN_MOTION_DDOT": 0}, "tle": {"line1": "1 66508U 25263Z   25341.25005787 -.02082263  00000+0 -33970-1 0  9999", "line2": "2 66508  43.0004 157.1830 0001343 261.6571 336.0840 15.55000176  4752"}}, "geometry": {"type": "Point", "coordinates": [148.90050419267004, -4.770786589767834]}}]}